{
  "norad_id": 66200,
  "name": "STARLINK-35551",
  "history": [
    {
      "epoch": "2026-03-28T21:10:22.053216Z",
      "apogee_km": 476.03058116470675,
      "perigee_km": 474.37070278781994,
      "latitude_deg": -4.039887627696621e-06,
      "longitude_deg": 12.11563697766679,
      "height_km": 476.03662626694523,
      "semi_major_axis_km": 6853.337641976263,
      "eccentricity": 0.0001211,
      "inclination_deg": 53.1569,
      "raan_deg": 156.0038,
      "arg_perigee_deg": 85.7264,
      "mean_anomaly_deg": 274.3875,
      "mean_motion_rev_day": 15.30204832
    }
  ]
}